start=new Date('2023-01-29T00:00:00.000Z').valueOf();
sats=[{"TIME_SYSTEM":"UTC","SEMIMAJOR_AXIS":"6925.345","PERIOD":"95.592","RCS_SIZE":"LARGE","MEAN_MOTION_DDOT":"0.0000000000000","APOAPSIS":"548.114","TLE_LINE1":"1 46585U 20070BF  23028.83297721  .00000369  00000-0  43629-4 0  9997","OBJECT_ID":"2020-070BF","CLASSIFICATION_TYPE":"U","INCLINATION":"53.0527","LAUNCH_DATE":"2020-10-06","GP_ID":"223909367","RA_OF_ASC_NODE":"215.6777","MEAN_ANOMALY":"272.0213","ARG_OF_PERICENTER":"88.0926","NORAD_CAT_ID":"46585","PERIAPSIS":"546.306","REF_FRAME":"TEME","MEAN_ELEMENT_THEORY":"SGP4","DECAY_DATE":null,"MEAN_MOTION":"15.06401189","BSTAR":"0.00004362900000","COUNTRY_CODE":"US","ELEMENT_SET_NO":"999","SITE":"AFETR","MEAN_MOTION_DOT":"0.00000369","EPHEMERIS_TYPE":"0","FILE":"3764201","ECCENTRICITY":"0.00013050","TLE_LINE2":"2 46585  53.0527 215.6777 0001305  88.0926 272.0213 15.06401189128585","CENTER_NAME":"EARTH","OBJECT_NAME":"STARLINK-1736","EPOCH":"2023-01-28T19:59:29.230944","REV_AT_EPOCH":"12858","OBJECT_TYPE":"PAYLOAD"},{"TIME_SYSTEM":"UTC","SEMIMAJOR_AXIS":"6925.353","PERIOD":"95.592","RCS_SIZE":"LARGE","MEAN_MOTION_DDOT":"0.0000000000000","APOAPSIS":"548.030","TLE_LINE1":"1 46586U 20070BG  23028.88921189  .00000670  00000-0  63869-4 0  9998","OBJECT_ID":"2020-070BG","CLASSIFICATION_TYPE":"U","INCLINATION":"53.0550","LAUNCH_DATE":"2020-10-06","GP_ID":"223908132","RA_OF_ASC_NODE":"215.4165","MEAN_ANOMALY":"278.5224","ARG_OF_PERICENTER":"81.5897","NORAD_CAT_ID":"46586","REF_FRAME":"TEME","PERIAPSIS":"546.405","MEAN_ELEMENT_THEORY":"SGP4","DECAY_DATE":null,"MEAN_MOTION":"15.06398704","BSTAR":"0.00006386900000","COUNTRY_CODE":"US","ELEMENT_SET_NO":"999","SITE":"AFETR","MEAN_MOTION_DOT":"0.00000670","FILE":"3764201","EPHEMERIS_TYPE":"0","ECCENTRICITY":"0.00011730","TLE_LINE2":"2 46586  53.0550 215.4165 0001173  81.5897 278.5224 15.06398704128591","CENTER_NAME":"EARTH","OBJECT_NAME":"STARLINK-1737","EPOCH":"2023-01-28T21:20:27.907296","REV_AT_EPOCH":"12859","OBJECT_TYPE":"PAYLOAD"},{"MEAN_MOTION_DOT":"-0.00001622","SITE":"AFETR","FILE":"3764201","EPHEMERIS_TYPE":"0","ECCENTRICITY":"0.00012530","CENTER_NAME":"EARTH","TLE_LINE2":"2 46588  53.0506 215.5149 0001253  88.1211 271.9921 15.06399955128599","OBJECT_NAME":"STARLINK-1746","EPOCH":"2023-01-28T20:53:54.629088","OBJECT_TYPE":"PAYLOAD","REV_AT_EPOCH":"12859","MEAN_MOTION":"15.06399955","DECAY_DATE":null,"BSTAR":"-0.00008999700000","ELEMENT_SET_NO":"999","COUNTRY_CODE":"US","LAUNCH_DATE":"2020-10-06","RA_OF_ASC_NODE":"215.5149","GP_ID":"223908382","ARG_OF_PERICENTER":"88.1211","MEAN_ANOMALY":"271.9921","PERIAPSIS":"546.346","REF_FRAME":"TEME","NORAD_CAT_ID":"46588","MEAN_ELEMENT_THEORY":"SGP4","SEMIMAJOR_AXIS":"6925.349","TIME_SYSTEM":"UTC","RCS_SIZE":"LARGE","PERIOD":"95.592","MEAN_MOTION_DDOT":"0.0000000000000","APOAPSIS":"548.081","TLE_LINE1":"1 46588U 20070BJ  23028.87077117 -.00001622  00000-0 -89997-4 0  9992","CLASSIFICATION_TYPE":"U","OBJECT_ID":"2020-070BJ","INCLINATION":"53.0506"},{"DECAY_DATE":null,"MEAN_MOTION":"15.06399184","ELEMENT_SET_NO":"999","COUNTRY_CODE":"US","BSTAR":"0.00000529540000","OBJECT_NAME":"STARLINK-1749","TLE_LINE2":"2 46589  53.0533 215.8423 0001100  91.3774 268.7341 15.06399184128571","CENTER_NAME":"EARTH","REV_AT_EPOCH":"12857","OBJECT_TYPE":"PAYLOAD","EPOCH":"2023-01-28T19:07:46.502400","SITE":"AFETR","MEAN_MOTION_DOT":"-0.00000202","ECCENTRICITY":"0.00011000","FILE":"3764201","EPHEMERIS_TYPE":"0","APOAPSIS":"547.978","TLE_LINE1":"1 46589U 20070BK  23028.79706600 -.00000202  00000-0  52954-5 0  9996","MEAN_MOTION_DDOT":"0.0000000000000","INCLINATION":"53.0533","OBJECT_ID":"2020-070BK","CLASSIFICATION_TYPE":"U","PERIOD":"95.592","RCS_SIZE":"LARGE","TIME_SYSTEM":"UTC","SEMIMAJOR_AXIS":"6925.351","ARG_OF_PERICENTER":"91.3774","MEAN_ANOMALY":"268.7341","MEAN_ELEMENT_THEORY":"SGP4","NORAD_CAT_ID":"46589","PERIAPSIS":"546.454","REF_FRAME":"TEME","LAUNCH_DATE":"2020-10-06","GP_ID":"223909129","RA_OF_ASC_NODE":"215.8423"},{"DECAY_DATE":null,"MEAN_MOTION":"15.06400091","COUNTRY_CODE":"US","ELEMENT_SET_NO":"999","BSTAR":"0.00014333000000","SITE":"AFETR","MEAN_MOTION_DOT":"0.00001854","ECCENTRICITY":"0.00011000","FILE":"3764201","EPHEMERIS_TYPE":"0","OBJECT_NAME":"STARLINK-1755","CENTER_NAME":"EARTH","TLE_LINE2":"2 46591  53.0516 215.8955 0001100  92.2958 267.8157 15.06400091127630","REV_AT_EPOCH":"12763","OBJECT_TYPE":"PAYLOAD","EPOCH":"2023-01-28T18:51:52.435584","PERIOD":"95.592","RCS_SIZE":"LARGE","TIME_SYSTEM":"UTC","SEMIMAJOR_AXIS":"6925.348","TLE_LINE1":"1 46591U 20070BM  23028.78602356  .00001854  00000-0  14333-3 0  9991","APOAPSIS":"547.975","MEAN_MOTION_DDOT":"0.0000000000000","INCLINATION":"53.0516","OBJECT_ID":"2020-070BM","CLASSIFICATION_TYPE":"U","LAUNCH_DATE":"2020-10-06","GP_ID":"223909866","RA_OF_ASC_NODE":"215.8955","ARG_OF_PERICENTER":"92.2958","MEAN_ANOMALY":"267.8157","MEAN_ELEMENT_THEORY":"SGP4","NORAD_CAT_ID":"46591","PERIAPSIS":"546.451","REF_FRAME":"TEME"},{"RCS_SIZE":"LARGE","PERIOD":"95.592","SEMIMAJOR_AXIS":"6925.360","TIME_SYSTEM":"UTC","INCLINATION":"53.0531","OBJECT_ID":"2020-073B","CLASSIFICATION_TYPE":"U","TLE_LINE1":"1 46671U 20073B   23028.21748483  .00000884  00000-0  78196-4 0  9993","APOAPSIS":"547.931","MEAN_MOTION_DDOT":"0.0000000000000","RA_OF_ASC_NODE":"308.6874","GP_ID":"223876092","LAUNCH_DATE":"2020-10-18","MEAN_ELEMENT_THEORY":"SGP4","PERIAPSIS":"546.519","REF_FRAME":"TEME","NORAD_CAT_ID":"46671","ARG_OF_PERICENTER":"100.1829","MEAN_ANOMALY":"259.9275","ELEMENT_SET_NO":"999","COUNTRY_CODE":"US","BSTAR":"0.00007819600000","MEAN_MOTION":"15.06396240","DECAY_DATE":null,"ECCENTRICITY":"0.00010200","EPHEMERIS_TYPE":"0","FILE":"3763924","MEAN_MOTION_DOT":"0.00000884","SITE":"AFETR","OBJECT_TYPE":"PAYLOAD","REV_AT_EPOCH":"12576","EPOCH":"2023-01-28T05:13:10.689312","OBJECT_NAME":"STARLINK-1715","CENTER_NAME":"EARTH","TLE_LINE2":"2 46671  53.0531 308.6874 0001020 100.1829 259.9275 15.06396240125769"},{"SEMIMAJOR_AXIS":"6925.360","TIME_SYSTEM":"UTC","RCS_SIZE":"LARGE","PERIOD":"95.592","OBJECT_ID":"2020-073C","CLASSIFICATION_TYPE":"U","INCLINATION":"53.0528","MEAN_MOTION_DDOT":"0.0000000000000","TLE_LINE1":"1 46672U 20073C   23028.89797295  .00000667  00000-0  63656-4 0  9997","APOAPSIS":"548.195","RA_OF_ASC_NODE":"300.3897","GP_ID":"223909375","LAUNCH_DATE":"2020-10-18","PERIAPSIS":"546.255","REF_FRAME":"TEME","NORAD_CAT_ID":"46672","MEAN_ELEMENT_THEORY":"SGP4","ARG_OF_PERICENTER":"101.0136","MEAN_ANOMALY":"259.1011","BSTAR":"0.00006365600000","ELEMENT_SET_NO":"999","COUNTRY_CODE":"US","MEAN_MOTION":"15.06396273","DECAY_DATE":null,"FILE":"3764201","EPHEMERIS_TYPE":"0","ECCENTRICITY":"0.00014000","MEAN_MOTION_DOT":"0.00000667","SITE":"AFETR","EPOCH":"2023-01-28T21:33:04.862880","OBJECT_TYPE":"PAYLOAD","REV_AT_EPOCH":"12594","TLE_LINE2":"2 46672  53.0528 300.3897 0001400 101.0136 259.1011 15.06396273125949","CENTER_NAME":"EARTH","OBJECT_NAME":"STARLINK-1716"},{"OBJECT_ID":"2020-073D","CLASSIFICATION_TYPE":"U","INCLINATION":"53.0546","MEAN_MOTION_DDOT":"0.0000000000000","TLE_LINE1":"1 46673U 20073D   23028.21654772  .00011042  00000-0  75899-3 0  9996","APOAPSIS":"547.960","SEMIMAJOR_AXIS":"6925.345","TIME_SYSTEM":"UTC","RCS_SIZE":"LARGE","PERIOD":"95.592","PERIAPSIS":"546.460","REF_FRAME":"TEME","NORAD_CAT_ID":"46673","MEAN_ELEMENT_THEORY":"SGP4","MEAN_ANOMALY":"261.6301","ARG_OF_PERICENTER":"98.4811","RA_OF_ASC_NODE":"318.5595","GP_ID":"223877591","LAUNCH_DATE":"2020-10-18","BSTAR":"0.00075899000000","ELEMENT_SET_NO":"999","COUNTRY_CODE":"US","MEAN_MOTION":"15.06401198","DECAY_DATE":null,"EPOCH":"2023-01-28T05:11:49.723008","OBJECT_TYPE":"PAYLOAD","REV_AT_EPOCH":"12562","CENTER_NAME":"EARTH","TLE_LINE2":"2 46673  53.0546 318.5595 0001083  98.4811 261.6301 15.06401198125620","OBJECT_NAME":"STARLINK-1717","EPHEMERIS_TYPE":"0","FILE":"3763924","ECCENTRICITY":"0.00010830","MEAN_MOTION_DOT":"0.00011042","SITE":"AFETR"},{"INCLINATION":"53.0538","CLASSIFICATION_TYPE":"U","OBJECT_ID":"2020-073E","APOAPSIS":"548.131","TLE_LINE1":"1 46674U 20073E   23028.72473753  .00014772  00000-0  10084-2 0  9998","MEAN_MOTION_DDOT":"0.0000000000000","RCS_SIZE":"LARGE","PERIOD":"95.592","SEMIMAJOR_AXIS":"6925.333","TIME_SYSTEM":"UTC","MEAN_ELEMENT_THEORY":"SGP4","REF_FRAME":"TEME","PERIAPSIS":"546.265","NORAD_CAT_ID":"46674","MEAN_ANOMALY":"283.4449","ARG_OF_PERICENTER":"76.6690","RA_OF_ASC_NODE":"301.1627","GP_ID":"223908390","LAUNCH_DATE":"2020-10-18","ELEMENT_SET_NO":"999","COUNTRY_CODE":"US","BSTAR":"0.00100840000000","MEAN_MOTION":"15.06405030","DECAY_DATE":null,"OBJECT_TYPE":"PAYLOAD","REV_AT_EPOCH":"12591","EPOCH":"2023-01-28T17:23:37.322592","OBJECT_NAME":"STARLINK-1718","CENTER_NAME":"EARTH","TLE_LINE2":"2 46674  53.0538 301.1627 0001347  76.6690 283.4449 15.06405030125918","ECCENTRICITY":"0.00013470","FILE":"3764201","EPHEMERIS_TYPE":"0","MEAN_MOTION_DOT":"0.00014772","SITE":"AFETR"},{"SITE":"AFETR","MEAN_MOTION_DOT":"0.00002772","EPHEMERIS_TYPE":"0","FILE":"3764201","ECCENTRICITY":"0.00012070","CENTER_NAME":"EARTH","TLE_LINE2":"2 46675  53.0530 300.2889 0001207  94.3233 265.7894 15.06398873125942","OBJECT_NAME":"STARLINK-1720","EPOCH":"2023-01-28T22:04:55.934112","REV_AT_EPOCH":"12594","OBJECT_TYPE":"PAYLOAD","DECAY_DATE":null,"MEAN_MOTION":"15.06398873","BSTAR":"0.00020493000000","COUNTRY_CODE":"US","ELEMENT_SET_NO":"999","LAUNCH_DATE":"2020-10-18","GP_ID":"223909137","RA_OF_ASC_NODE":"300.2889","MEAN_ANOMALY":"265.7894","ARG_OF_PERICENTER":"94.3233","NORAD_CAT_ID":"46675","PERIAPSIS":"546.381","REF_FRAME":"TEME","MEAN_ELEMENT_THEORY":"SGP4","TIME_SYSTEM":"UTC","SEMIMAJOR_AXIS":"6925.352","PERIOD":"95.592","RCS_SIZE":"LARGE","MEAN_MOTION_DDOT":"0.0000000000000","TLE_LINE1":"1 46675U 20073F   23028.92009183  .00002772  00000-0  20493-3 0  9996","APOAPSIS":"548.053","CLASSIFICATION_TYPE":"U","OBJECT_ID":"2020-073F","INCLINATION":"53.0530"}];
